DELTA 2 R/B(1)          
1 20453U 90008B   25352.37087825  .00039650  00000+0  62425-3 0  9992
2 20453  35.6075 344.1569 0111322 229.7297 129.3659 15.45665871913503
COSMOS 2058             
1 20465U 90010A   25352.85248486  .00004370  00000+0  26326-3 0  9994
2 20465  82.4689 127.0177 0008799 248.1566 111.8728 15.10529499930034
SL-14 R/B               
1 20466U 90010B   25352.95094470  .00000371  00000+0  42158-4 0  9997
2 20466  82.5019 343.2132 0019159 201.6901 158.3505 14.83476923916513
SL-14 R/B               
1 20511U 90018B   25352.89111473  .00000408  00000+0  48388-4 0  9994
2 20511  82.5213 298.6151 0016480   3.6846 356.4486 14.82052910910615
HST                     
1 20580U 90037B   25352.01685464  .00005688  00000+0  19368-3 0  9991
2 20580  28.4674 236.5696 0001951 306.2447  53.7967 15.28122533760807
SL-16 R/B               
1 20625U 90046B   25352.75476282 -.00000282  00000+0 -12112-3 0  9995
2 20625  70.9992 107.8898 0011968  62.5079 297.7258 14.14999559836944
COSMOS 2084             
1 20663U 90055A   25352.94641855  .00002184  00000+0  16570-3 0  9991
2 20663  62.7901 250.8444 0030720 175.4942 184.6441 15.05055232924163
SL-6 R/B(2)             
1 20666U 90055D   25352.88787053  .00001593  00000+0  13196-3 0  9992
2 20666  62.7810 168.5247 0013366 313.0293  46.9686 15.03100893926049
SL-8 R/B                
1 20775U 90078B   25352.85836250  .00014928  00000+0  46150-3 0  9991
2 20775  82.9044 323.8319 0370980 285.3141  70.7365 14.86172904797283
SL-8 R/B                
1 21088U 91006B   25352.78071307  .00000099  00000+0  84579-4 0  9999
2 21088  82.9421 230.2195 0021182 261.8479 164.4590 13.77491032752932
OKEAN-3                 
1 21397U 91039A   25352.60290318  .00002646  00000+0  18848-3 0  9999
2 21397  82.5180  55.3732 0013388 243.9566 116.0282 15.04158683852849
COSMOS 2151             
1 21422U 91042A   25352.96178308  .00001680  00000+0  13388-3 0  9996
2 21422  82.4962 161.5071 0012051 338.3269  21.7443 14.99709267851096
