CCSDS_OMM_VERS = 2.0
CREATION_DATE  = 
ORIGINATOR     = 

OBJECT_NAME    = DELTA 2 R/B(1)
OBJECT_ID      = 1990-008B
CENTER_NAME    = EARTH
REF_FRAME      = TEME
TIME_SYSTEM    = UTC
MEAN_ELEMENT_THEORY = SGP/SGP4

EPOCH          = 2025-12-18T08:54:03.880800
MEAN_MOTION    = 15.45665871
ECCENTRICITY   = .0111322
INCLINATION    = 35.6075
RA_OF_ASC_NODE = 344.1569
ARG_OF_PERICENTER = 229.7297
MEAN_ANOMALY   = 129.3659

EPHEMERIS_TYPE = 0
CLASSIFICATION_TYPE = U
NORAD_CAT_ID   = 20453
ELEMENT_SET_NO = 999
REV_AT_EPOCH   = 91350
BSTAR          = .62425242E-3
MEAN_MOTION_DOT = .3965E-3
MEAN_MOTION_DDOT = 0

CCSDS_OMM_VERS = 2.0
CREATION_DATE  = 
ORIGINATOR     = 

OBJECT_NAME    = COSMOS 2058
OBJECT_ID      = 1990-010A
CENTER_NAME    = EARTH
REF_FRAME      = TEME
TIME_SYSTEM    = UTC
MEAN_ELEMENT_THEORY = SGP/SGP4

EPOCH          = 2025-12-18T20:27:34.691904
MEAN_MOTION    = 15.10529499
ECCENTRICITY   = .00087991
INCLINATION    = 82.4689
RA_OF_ASC_NODE = 127.0177
ARG_OF_PERICENTER = 248.1566
MEAN_ANOMALY   = 111.8728

EPHEMERIS_TYPE = 0
CLASSIFICATION_TYPE = U
NORAD_CAT_ID   = 20465
ELEMENT_SET_NO = 999
REV_AT_EPOCH   = 93003
BSTAR          = .2632605E-3
MEAN_MOTION_DOT = .437E-4
MEAN_MOTION_DDOT = 0

CCSDS_OMM_VERS = 2.0
CREATION_DATE  = 
ORIGINATOR     = 

OBJECT_NAME    = SL-14 R/B
OBJECT_ID      = 1990-010B
CENTER_NAME    = EARTH
REF_FRAME      = TEME
TIME_SYSTEM    = UTC
MEAN_ELEMENT_THEORY = SGP/SGP4

EPOCH          = 2025-12-18T22:49:21.622080
MEAN_MOTION    = 14.83476923
ECCENTRICITY   = .00191597
INCLINATION    = 82.5019
RA_OF_ASC_NODE = 343.2132
ARG_OF_PERICENTER = 201.6901
MEAN_ANOMALY   = 158.3505

EPHEMERIS_TYPE = 0
CLASSIFICATION_TYPE = U
NORAD_CAT_ID   = 20466
ELEMENT_SET_NO = 999
REV_AT_EPOCH   = 91651
BSTAR          = .42158187E-4
MEAN_MOTION_DOT = .371E-5
MEAN_MOTION_DDOT = 0

CCSDS_OMM_VERS = 2.0
CREATION_DATE  = 
ORIGINATOR     = 

OBJECT_NAME    = SL-14 R/B
OBJECT_ID      = 1990-018B
CENTER_NAME    = EARTH
REF_FRAME      = TEME
TIME_SYSTEM    = UTC
MEAN_ELEMENT_THEORY = SGP/SGP4

EPOCH          = 2025-12-18T21:23:12.312672
MEAN_MOTION    = 14.82052910
ECCENTRICITY   = .00164807
INCLINATION    = 82.5213
RA_OF_ASC_NODE = 298.6151
ARG_OF_PERICENTER = 3.6846
MEAN_ANOMALY   = 356.4486

EPHEMERIS_TYPE = 0
CLASSIFICATION_TYPE = U
NORAD_CAT_ID   = 20511
ELEMENT_SET_NO = 999
REV_AT_EPOCH   = 91061
BSTAR          = .48387924E-4
MEAN_MOTION_DOT = .408E-5
MEAN_MOTION_DDOT = 0

CCSDS_OMM_VERS = 2.0
CREATION_DATE  = 
ORIGINATOR     = 

OBJECT_NAME    = HST
OBJECT_ID      = 1990-037B
CENTER_NAME    = EARTH
REF_FRAME      = TEME
TIME_SYSTEM    = UTC
MEAN_ELEMENT_THEORY = SGP/SGP4

EPOCH          = 2025-12-18T00:24:16.240896
MEAN_MOTION    = 15.28122533
ECCENTRICITY   = .00019515
INCLINATION    = 28.4674
RA_OF_ASC_NODE = 236.5696
ARG_OF_PERICENTER = 306.2447
MEAN_ANOMALY   = 53.7967

EPHEMERIS_TYPE = 0
CLASSIFICATION_TYPE = U
NORAD_CAT_ID   = 20580
ELEMENT_SET_NO = 999
REV_AT_EPOCH   = 76080
BSTAR          = .19368318E-3
MEAN_MOTION_DOT = .5688E-4
MEAN_MOTION_DDOT = 0

CCSDS_OMM_VERS = 2.0
CREATION_DATE  = 
ORIGINATOR     = 

OBJECT_NAME    = SL-16 R/B
OBJECT_ID      = 1990-046B
CENTER_NAME    = EARTH
REF_FRAME      = TEME
TIME_SYSTEM    = UTC
MEAN_ELEMENT_THEORY = SGP/SGP4

EPOCH          = 2025-12-18T18:06:51.507648
MEAN_MOTION    = 14.14999559
ECCENTRICITY   = .00119682
INCLINATION    = 70.9992
RA_OF_ASC_NODE = 107.8898
ARG_OF_PERICENTER = 62.5079
MEAN_ANOMALY   = 297.7258

EPHEMERIS_TYPE = 0
CLASSIFICATION_TYPE = U
NORAD_CAT_ID   = 20625
ELEMENT_SET_NO = 999
REV_AT_EPOCH   = 83694
BSTAR          = -.12112335E-3
MEAN_MOTION_DOT = -.282E-5
MEAN_MOTION_DDOT = 0

CCSDS_OMM_VERS = 2.0
CREATION_DATE  = 
ORIGINATOR     = 

OBJECT_NAME    = COSMOS 2084
OBJECT_ID      = 1990-055A
CENTER_NAME    = EARTH
REF_FRAME      = TEME
TIME_SYSTEM    = UTC
MEAN_ELEMENT_THEORY = SGP/SGP4

EPOCH          = 2025-12-18T22:42:50.562720
MEAN_MOTION    = 15.05055232
ECCENTRICITY   = .00307201
INCLINATION    = 62.7901
RA_OF_ASC_NODE = 250.8444
ARG_OF_PERICENTER = 175.4942
MEAN_ANOMALY   = 184.6441

EPHEMERIS_TYPE = 0
CLASSIFICATION_TYPE = U
NORAD_CAT_ID   = 20663
ELEMENT_SET_NO = 999
REV_AT_EPOCH   = 92416
BSTAR          = .16569563E-3
MEAN_MOTION_DOT = .2184E-4
MEAN_MOTION_DDOT = 0

CCSDS_OMM_VERS = 2.0
CREATION_DATE  = 
ORIGINATOR     = 

OBJECT_NAME    = SL-6 R/B(2)
OBJECT_ID      = 1990-055D
CENTER_NAME    = EARTH
REF_FRAME      = TEME
TIME_SYSTEM    = UTC
MEAN_ELEMENT_THEORY = SGP/SGP4

EPOCH          = 2025-12-18T21:18:32.013792
MEAN_MOTION    = 15.03100893
ECCENTRICITY   = .00133663
INCLINATION    = 62.7810
RA_OF_ASC_NODE = 168.5247
ARG_OF_PERICENTER = 313.0293
MEAN_ANOMALY   = 46.9686

EPHEMERIS_TYPE = 0
CLASSIFICATION_TYPE = U
NORAD_CAT_ID   = 20666
ELEMENT_SET_NO = 999
REV_AT_EPOCH   = 92604
BSTAR          = .131956E-3
MEAN_MOTION_DOT = .1593E-4
MEAN_MOTION_DDOT = 0

CCSDS_OMM_VERS = 2.0
CREATION_DATE  = 
ORIGINATOR     = 

OBJECT_NAME    = SL-8 R/B
OBJECT_ID      = 1990-078B
CENTER_NAME    = EARTH
REF_FRAME      = TEME
TIME_SYSTEM    = UTC
MEAN_ELEMENT_THEORY = SGP/SGP4

EPOCH          = 2025-12-18T20:36:02.520000
MEAN_MOTION    = 14.86172904
ECCENTRICITY   = .03709808
INCLINATION    = 82.9044
RA_OF_ASC_NODE = 323.8319
ARG_OF_PERICENTER = 285.3141
MEAN_ANOMALY   = 70.7365

EPHEMERIS_TYPE = 0
CLASSIFICATION_TYPE = U
NORAD_CAT_ID   = 20775
ELEMENT_SET_NO = 999
REV_AT_EPOCH   = 79728
BSTAR          = .46150082E-3
MEAN_MOTION_DOT = .14928E-3
MEAN_MOTION_DDOT = 0

CCSDS_OMM_VERS = 2.0
CREATION_DATE  = 
ORIGINATOR     = 

OBJECT_NAME    = SL-8 R/B
OBJECT_ID      = 1991-006B
CENTER_NAME    = EARTH
REF_FRAME      = TEME
TIME_SYSTEM    = UTC
MEAN_ELEMENT_THEORY = SGP/SGP4

EPOCH          = 2025-12-18T18:44:13.609248
MEAN_MOTION    = 13.77491032
ECCENTRICITY   = .00211829
INCLINATION    = 82.9421
RA_OF_ASC_NODE = 230.2195
ARG_OF_PERICENTER = 261.8479
MEAN_ANOMALY   = 164.4590

EPHEMERIS_TYPE = 0
CLASSIFICATION_TYPE = U
NORAD_CAT_ID   = 21088
ELEMENT_SET_NO = 999
REV_AT_EPOCH   = 75293
BSTAR          = .84579302E-4
MEAN_MOTION_DOT = .99E-6
MEAN_MOTION_DDOT = 0

CCSDS_OMM_VERS = 2.0
CREATION_DATE  = 
ORIGINATOR     = 

OBJECT_NAME    = OKEAN-3
OBJECT_ID      = 1991-039A
CENTER_NAME    = EARTH
REF_FRAME      = TEME
TIME_SYSTEM    = UTC
MEAN_ELEMENT_THEORY = SGP/SGP4

EPOCH          = 2025-12-18T14:28:10.834752
MEAN_MOTION    = 15.04158683
ECCENTRICITY   = .00133884
INCLINATION    = 82.5180
RA_OF_ASC_NODE = 55.3732
ARG_OF_PERICENTER = 243.9566
MEAN_ANOMALY   = 116.0282

EPHEMERIS_TYPE = 0
CLASSIFICATION_TYPE = U
NORAD_CAT_ID   = 21397
ELEMENT_SET_NO = 999
REV_AT_EPOCH   = 85284
BSTAR          = .18848124E-3
MEAN_MOTION_DOT = .2646E-4
MEAN_MOTION_DDOT = 0

CCSDS_OMM_VERS = 2.0
CREATION_DATE  = 
ORIGINATOR     = 

OBJECT_NAME    = COSMOS 2151
OBJECT_ID      = 1991-042A
CENTER_NAME    = EARTH
REF_FRAME      = TEME
TIME_SYSTEM    = UTC
MEAN_ELEMENT_THEORY = SGP/SGP4

EPOCH          = 2025-12-18T23:04:58.058112
MEAN_MOTION    = 14.99709267
ECCENTRICITY   = .00120512
INCLINATION    = 82.4962
RA_OF_ASC_NODE = 161.5071
ARG_OF_PERICENTER = 338.3269
MEAN_ANOMALY   = 21.7443

EPHEMERIS_TYPE = 0
CLASSIFICATION_TYPE = U
NORAD_CAT_ID   = 21422
ELEMENT_SET_NO = 999
REV_AT_EPOCH   = 85109
BSTAR          = .13388075E-3
MEAN_MOTION_DOT = .168E-4
MEAN_MOTION_DDOT = 0

